[
    {
        "Altitude(m)": 607895.7913755456,
        "Argument of Periapsis(deg)": 0.0,
        "Eccentricity": 0.0,
        "Inclination(deg)": 60.0,
        "Latitude(deg)": 40.998269142279405,
        "Longitude(deg)": -39.91141346107923,
        "Mean Anomaly(deg)": -229.09089999999998,
        "RAAN(deg)": 270.0,
        "Satellite Name": "Test1 1196",
        "Satellite Number": 1196,
        "Semi-Major Axis(m)": 6980739.136638005,
        "Time(s)": 0
    },
    {
        "Altitude(m)": 607795.1045021585,
        "Argument of Periapsis(deg)": 0.00010418945913296404,
        "Eccentricity": 0.0,
        "Inclination(deg)": 60.0,
        "Latitude(deg)": 40.5305939897364,
        "Longitude(deg)": -39.41481917574767,
        "Mean Anomaly(deg)": -228.4707938545382,
        "RAAN(deg)": 269.99957995086027,
        "Satellite Name": "Test1 1196",
        "Satellite Number": 1196,
        "Semi-Major Axis(m)": 6980739.136638005,
        "Time(s)": 10
    },
    {
        "Altitude(m)": 607694.5931834106,
        "Argument of Periapsis(deg)": 0.0002083789182659281,
        "Eccentricity": 0.0,
        "Inclination(deg)": 60.0,
        "Latitude(deg)": 40.06040888254142,
        "Longitude(deg)": -38.92566573840074,
        "Mean Anomaly(deg)": -227.85068770907634,
        "RAAN(deg)": 269.9991599017205,
        "Satellite Name": "Test1 1196",
        "Satellite Number": 1196,
        "Semi-Major Axis(m)": 6980739.136638005,
        "Time(s)": 20
    },
    {
        "Altitude(m)": 607594.3211179209,
        "Argument of Periapsis(deg)": 0.00031256837739889213,
        "Eccentricity": 0.0,
        "Inclination(deg)": 60.0,
        "Latitude(deg)": 39.58778739437544,
        "Longitude(deg)": -38.44376754439367,
        "Mean Anomaly(deg)": -227.23058156361452,
        "RAAN(deg)": 269.9987398525808,
        "Satellite Name": "Test1 1196",
        "Satellite Number": 1196,
        "Semi-Major Axis(m)": 6980739.136638005,
        "Time(s)": 30
    },
    {
        "Altitude(m)": 607494.3521046533,
        "Argument of Periapsis(deg)": 0.0004167578365318562,
        "Eccentricity": 0.0,
        "Inclination(deg)": 60.0,
        "Latitude(deg)": 39.112800858770676,
        "Longitude(deg)": -37.96894202894549,
        "Mean Anomaly(deg)": -226.61047541815267,
        "RAAN(deg)": 269.99831980344106,
        "Satellite Name": "Test1 1196",
        "Satellite Number": 1196,
        "Semi-Major Axis(m)": 6980739.136638005,
        "Time(s)": 40
    },
    {
        "Altitude(m)": 607394.7500110212,
        "Argument of Periapsis(deg)": 0.0005209472956648203,
        "Eccentricity": 0.0,
        "Inclination(deg)": 60.0,
        "Latitude(deg)": 38.6355184424689,
        "Longitude(deg)": -37.50101068758641,
        "Mean Anomaly(deg)": -225.99036927269083,
        "RAAN(deg)": 269.9978997543013,
        "Satellite Name": "Test1 1196",
        "Satellite Number": 1196,
        "Semi-Major Axis(m)": 6980739.136638005,
        "Time(s)": 50
    },
    {
        "Altitude(m)": 607295.5787409041,
        "Argument of Periapsis(deg)": 0.0006251367547977843,
        "Eccentricity": 0.0,
        "Inclination(deg)": 60.0,
        "Latitude(deg)": 38.15600721724188,
        "Longitude(deg)": -37.039798572915906,
        "Mean Anomaly(deg)": -225.37026312722898,
        "RAAN(deg)": 269.99747970516154,
        "Satellite Name": "Test1 1196",
        "Satellite Number": 1196,
        "Semi-Major Axis(m)": 6980739.136638005,
        "Time(s)": 60
    },
    {
        "Altitude(m)": 607196.902202561,
        "Argument of Periapsis(deg)": 0.0007293262139307483,
        "Eccentricity": 0.0,
        "Inclination(deg)": 60.0,
        "Latitude(deg)": 37.67433223010456,
        "Longitude(deg)": -36.58513378167639,
        "Mean Anomaly(deg)": -224.7501569817672,
        "RAAN(deg)": 269.9970596560218,
        "Satellite Name": "Test1 1196",
        "Satellite Number": 1196,
        "Semi-Major Axis(m)": 6980739.136638005,
        "Time(s)": 70
    },
    {
        "Altitude(m)": 607098.7842765261,
        "Argument of Periapsis(deg)": 0.0008335156730637124,
        "Eccentricity": 0.0,
        "Inclination(deg)": 60.0,
        "Latitude(deg)": 37.190556571865095,
        "Longitude(deg)": -36.13684844605939,
        "Mean Anomaly(deg)": -224.13005083630534,
        "RAAN(deg)": 269.99663960688207,
        "Satellite Name": "Test1 1196",
        "Satellite Number": 1196,
        "Semi-Major Axis(m)": 6980739.136638005,
        "Time(s)": 80
    },
    {
        "Altitude(m)": 607001.2887834463,
        "Argument of Periapsis(deg)": 0.0009377051321966765,
        "Eccentricity": 0.0,
        "Inclination(deg)": 60.0,
        "Latitude(deg)": 36.70474144397765,
        "Longitude(deg)": -35.69477820446304,
        "Mean Anomaly(deg)": -223.50994469084353,
        "RAAN(deg)": 269.99621955774234,
        "Satellite Name": "Test1 1196",
        "Satellite Number": 1196,
        "Semi-Major Axis(m)": 6980739.136638005,
        "Time(s)": 90
    },
    {
        "Altitude(m)": 606904.4794518886,
        "Argument of Periapsis(deg)": 0.0010418945913296407,
        "Eccentricity": 0.0,
        "Inclination(deg)": 60.0,
        "Latitude(deg)": 36.21694622366667,
        "Longitude(deg)": -35.25876166545415,
        "Mean Anomaly(deg)": -222.88983854538174,
        "RAAN(deg)": 269.99579950860254,
        "Satellite Name": "Test1 1196",
        "Satellite Number": 1196,
        "Semi-Major Axis(m)": 6980739.136638005,
        "Time(s)": 100
    },
    {
        "Altitude(m)": 606808.4198861613,
        "Argument of Periapsis(deg)": 0.0011460840504626045,
        "Eccentricity": 0.0,
        "Inclination(deg)": 60.0,
        "Latitude(deg)": 35.72722852730467,
        "Longitude(deg)": -34.82864137861723,
        "Mean Anomaly(deg)": -222.2697323999199,
        "RAAN(deg)": 269.99537945946287,
        "Satellite Name": "Test1 1196",
        "Satellite Number": 1196,
        "Semi-Major Axis(m)": 6980739.136638005,
        "Time(s)": 110
    },
    {
        "Altitude(m)": 606713.1735341122,
        "Argument of Periapsis(deg)": 0.0012502735095955685,
        "Eccentricity": 0.0,
        "Inclination(deg)": 60.0,
        "Latitude(deg)": 35.23564427203851,
        "Longitude(deg)": -34.40426328728576,
        "Mean Anomaly(deg)": -221.64962625445807,
        "RAAN(deg)": 269.99495941032313,
        "Satellite Name": "Test1 1196",
        "Satellite Number": 1196,
        "Semi-Major Axis(m)": 6980739.136638005,
        "Time(s)": 120
    },
    {
        "Altitude(m)": 606618.8036549633,
        "Argument of Periapsis(deg)": 0.0013544629687285324,
        "Eccentricity": 0.0,
        "Inclination(deg)": 60.0,
        "Latitude(deg)": 34.74224773566256,
        "Longitude(deg)": -33.98547617670409,
        "Mean Anomaly(deg)": -221.0295201089962,
        "RAAN(deg)": 269.99453936118334,
        "Satellite Name": "Test1 1196",
        "Satellite Number": 1196,
        "Semi-Major Axis(m)": 6980739.136638005,
        "Time(s)": 130
    },
    {
        "Altitude(m)": 606525.3732871967,
        "Argument of Periapsis(deg)": 0.0014586524278614966,
        "Eccentricity": 0.0,
        "Inclination(deg)": 60.0,
        "Latitude(deg)": 34.24709161474348,
        "Longitude(deg)": -33.57213263110734,
        "Mean Anomaly(deg)": -220.40941396353435,
        "RAAN(deg)": 269.9941193120436,
        "Satellite Name": "Test1 1196",
        "Satellite Number": 1196,
        "Semi-Major Axis(m)": 6980739.136638005,
        "Time(s)": 140
    },
    {
        "Altitude(m)": 606432.9452164521,
        "Argument of Periapsis(deg)": 0.0015628418869944607,
        "Eccentricity": 0.0,
        "Inclination(deg)": 60.0,
        "Latitude(deg)": 33.750227081014074,
        "Longitude(deg)": -33.16408847453698,
        "Mean Anomaly(deg)": -219.78930781807256,
        "RAAN(deg)": 269.9936992629039,
        "Satellite Name": "Test1 1196",
        "Satellite Number": 1196,
        "Semi-Major Axis(m)": 6980739.136638005,
        "Time(s)": 150
    },
    {
        "Altitude(m)": 606341.5819435609,
        "Argument of Periapsis(deg)": 0.0016670313461274247,
        "Eccentricity": 0.0,
        "Inclination(deg)": 60.0,
        "Latitude(deg)": 33.251703836051945,
        "Longitude(deg)": -32.76120220877155,
        "Mean Anomaly(deg)": -219.1692016726107,
        "RAAN(deg)": 269.99327921376414,
        "Satellite Name": "Test1 1196",
        "Satellite Number": 1196,
        "Semi-Major Axis(m)": 6980739.136638005,
        "Time(s)": 160
    },
    {
        "Altitude(m)": 606251.3456525895,
        "Argument of Periapsis(deg)": 0.0017712208052603888,
        "Eccentricity": 0.0,
        "Inclination(deg)": 60.0,
        "Latitude(deg)": 32.75157016426482,
        "Longitude(deg)": -32.363335961707264,
        "Mean Anomaly(deg)": -218.54909552714886,
        "RAAN(deg)": 269.9928591646244,
        "Satellite Name": "Test1 1196",
        "Satellite Number": 1196,
        "Semi-Major Axis(m)": 6980739.136638005,
        "Time(s)": 170
    },
    {
        "Altitude(m)": 606162.2981790404,
        "Argument of Periapsis(deg)": 0.001875410264393353,
        "Eccentricity": 0.0,
        "Inclination(deg)": 60.0,
        "Latitude(deg)": 32.249872984211954,
        "Longitude(deg)": -31.970354920860835,
        "Mean Anomaly(deg)": -217.92898938168705,
        "RAAN(deg)": 269.9924391154846,
        "Satellite Name": "Test1 1196",
        "Satellite Number": 1196,
        "Semi-Major Axis(m)": 6980739.136638005,
        "Time(s)": 180
    },
    {
        "Altitude(m)": 606074.5009781417,
        "Argument of Periapsis(deg)": 0.0019795997235263173,
        "Eccentricity": 0.0,
        "Inclination(deg)": 60.0,
        "Latitude(deg)": 31.746657898291076,
        "Longitude(deg)": -31.58212676524288,
        "Mean Anomaly(deg)": -217.3088832362252,
        "RAAN(deg)": 269.99201906634494,
        "Satellite Name": "Test1 1196",
        "Satellite Number": 1196,
        "Semi-Major Axis(m)": 6980739.136638005,
        "Time(s)": 190
    }
]